{
  "type": "FeatureCollection",
  "features": [
    {
      "type": "Feature",
      "properties": {
        "norad_id": 66893,
        "name": "STARLINK-36033",
        "group": "last-30-days",
        "lat": 20.176457295821002,
        "lon": -132.87676769845837,
        "alt_km": 300.81383374940924,
        "timestamp": "2025-12-14T20:40:30.517492+00:00",
        "meta_object_name": "STARLINK-36033",
        "meta_object_id": "2025-283R",
        "meta_epoch": "2025-12-14T06:00:02.999808",
        "meta_mean_motion": 15.91408885,
        "meta_eccentricity": 9.8e-05,
        "meta_inclination": 53.1549,
        "meta_ra_of_asc_node": 66.2276,
        "meta_arg_of_pericenter": 79.5761,
        "meta_mean_anomaly": 171.6902,
        "meta_ephemeris_type": 0,
        "meta_classification_type": "U",
        "meta_norad_cat_id": 66893,
        "meta_element_set_no": 999,
        "meta_rev_at_epoch": 267,
        "meta_bstar": -0.0043906374,
        "meta_mean_motion_dot": -0.01442443,
        "meta_mean_motion_ddot": 0.00059233455,
        "tle_line1": "1 66893U 25283R   25348.25003472 -.01442443  59233-3 -43906-2 0  9990",
        "tle_line2": "2 66893  53.1549  66.2276 0000980  79.5761 171.6902 15.91408885  2672"
      },
      "geometry": {
        "type": "Point",
        "coordinates": [
          -132.87676769845837,
          20.176457295821002
        ]
      }
    },
    {
      "type": "Feature",
      "properties": {
        "norad_id": 66894,
        "name": "STARLINK-35718",
        "group": "last-30-days",
        "lat": 17.831651331505675,
        "lon": -130.84617626490694,
        "alt_km": 301.19090015167967,
        "timestamp": "2025-12-14T20:40:30.517503+00:00",
        "meta_object_name": "STARLINK-35718",
        "meta_object_id": "2025-283S",
        "meta_epoch": "2025-12-14T06:00:02.999808",
        "meta_mean_motion": 15.91465065,
        "meta_eccentricity": 8.646e-05,
        "meta_inclination": 53.1552,
        "meta_ra_of_asc_node": 66.2216,
        "meta_arg_of_pericenter": 83.3661,
        "meta_mean_anomaly": 170.8691,
        "meta_ephemeris_type": 0,
        "meta_classification_type": "U",
        "meta_norad_cat_id": 66894,
        "meta_element_set_no": 999,
        "meta_rev_at_epoch": 267,
        "meta_bstar": -0.0045202252,
        "meta_mean_motion_dot": -0.01488719,
        "meta_mean_motion_ddot": 0.00062786369,
        "tle_line1": "1 66894U 25283S   25348.25003472 -.01488719  62786-3 -45202-2 0  9995",
        "tle_line2": "2 66894  53.1552  66.2216 0000864  83.3661 170.8691 15.91465065  2673"
      },
      "geometry": {
        "type": "Point",
        "coordinates": [
          -130.84617626490694,
          17.831651331505675
        ]
      }
    },
    {
      "type": "Feature",
      "properties": {
        "norad_id": 66895,
        "name": "STARLINK-35971",
        "group": "last-30-days",
        "lat": 13.799457362786306,
        "lon": -127.51298230077161,
        "alt_km": 301.7412606216394,
        "timestamp": "2025-12-14T20:40:30.517515+00:00",
        "meta_object_name": "STARLINK-35971",
        "meta_object_id": "2025-283T",
        "meta_epoch": "2025-12-14T06:00:02.999808",
        "meta_mean_motion": 15.91550112,
        "meta_eccentricity": 8.92e-05,
        "meta_inclination": 53.1545,
        "meta_ra_of_asc_node": 66.2104,
        "meta_arg_of_pericenter": 86.4871,
        "meta_mean_anomaly": 172.7731,
        "meta_ephemeris_type": 0,
        "meta_classification_type": "U",
        "meta_norad_cat_id": 66895,
        "meta_element_set_no": 999,
        "meta_rev_at_epoch": 267,
        "meta_bstar": -0.0046393672,
        "meta_mean_motion_dot": -0.01534094,
        "meta_mean_motion_ddot": 0.00066386338,
        "tle_line1": "1 66895U 25283T   25348.25003472 -.01534094  66386-3 -46394-2 0  9997",
        "tle_line2": "2 66895  53.1545  66.2104 0000892  86.4871 172.7731 15.91550112  2674"
      },
      "geometry": {
        "type": "Point",
        "coordinates": [
          -127.51298230077161,
          13.799457362786306
        ]
      }
    },
    {
      "type": "Feature",
      "properties": {
        "norad_id": 66896,
        "name": "STARLINK-35791",
        "group": "last-30-days",
        "lat": 15.714385873521831,
        "lon": -129.07442790547282,
        "alt_km": 301.5382927974115,
        "timestamp": "2025-12-14T20:40:30.517525+00:00",
        "meta_object_name": "STARLINK-35791",
        "meta_object_id": "2025-283U",
        "meta_epoch": "2025-12-14T06:00:02.999808",
        "meta_mean_motion": 15.91511696,
        "meta_eccentricity": 7.871e-05,
        "meta_inclination": 53.1548,
        "meta_ra_of_asc_node": 66.2154,
        "meta_arg_of_pericenter": 82.5288,
        "meta_mean_anomaly": 174.3564,
        "meta_ephemeris_type": 0,
        "meta_classification_type": "U",
        "meta_norad_cat_id": 66896,
        "meta_element_set_no": 999,
        "meta_rev_at_epoch": 267,
        "meta_bstar": -0.004598893,
        "meta_mean_motion_dot": -0.01517892,
        "meta_mean_motion_ddot": 0.00065084549,
        "tle_line1": "1 66896U 25283U   25348.25003472 -.01517892  65085-3 -45989-2 0  9999",
        "tle_line2": "2 66896  53.1548  66.2154 0000787  82.5288 174.3564 15.91511696  2671"
      },
      "geometry": {
        "type": "Point",
        "coordinates": [
          -129.07442790547282,
          15.714385873521831
        ]
      }
    },
    {
      "type": "Feature",
      "properties": {
        "norad_id": 66897,
        "name": "STARLINK-36079",
        "group": "last-30-days",
        "lat": 11.576071791648872,
        "lon": -125.74061780566699,
        "alt_km": 302.09015329523027,
        "timestamp": "2025-12-14T20:40:30.517537+00:00",
        "meta_object_name": "STARLINK-36079",
        "meta_object_id": "2025-283V",
        "meta_epoch": "2025-12-14T06:00:02.999808",
        "meta_mean_motion": 15.91584386,
        "meta_eccentricity": 8.065e-05,
        "meta_inclination": 53.1548,
        "meta_ra_of_asc_node": 66.2051,
        "meta_arg_of_pericenter": 84.4436,
        "meta_mean_anomaly": 177.5746,
        "meta_ephemeris_type": 0,
        "meta_classification_type": "U",
        "meta_norad_cat_id": 66897,
        "meta_element_set_no": 999,
        "meta_rev_at_epoch": 267,
        "meta_bstar": -0.0046666315,
        "meta_mean_motion_dot": -0.01545681,
        "meta_mean_motion_ddot": 0.00067329607,
        "tle_line1": "1 66897U 25283V   25348.25003472 -.01545681  67330-3 -46666-2 0  9995",
        "tle_line2": "2 66897  53.1548  66.2051 0000806  84.4436 177.5746 15.91584386  2679"
      },
      "geometry": {
        "type": "Point",
        "coordinates": [
          -125.74061780566699,
          11.576071791648872
        ]
      }
    },
    {
      "type": "Feature",
      "properties": {
        "norad_id": 66898,
        "name": "STARLINK-36065",
        "group": "last-30-days",
        "lat": 9.380959420808692,
        "lon": -124.02776920901,
        "alt_km": 302.40777984559736,
        "timestamp": "2025-12-14T20:40:30.517547+00:00",
        "meta_object_name": "STARLINK-36065",
        "meta_object_id": "2025-283W",
        "meta_epoch": "2025-12-14T06:00:02.999808",
        "meta_mean_motion": 15.91621094,
        "meta_eccentricity": 8.976e-05,
        "meta_inclination": 53.1544,
        "meta_ra_of_asc_node": 66.1989,
        "meta_arg_of_pericenter": 82.5701,
        "meta_mean_anomaly": 182.1539,
        "meta_ephemeris_type": 0,
        "meta_classification_type": "U",
        "meta_norad_cat_id": 66898,
        "meta_element_set_no": 999,
        "meta_rev_at_epoch": 267,
        "meta_bstar": -0.004703096,
        "meta_mean_motion_dot": -0.01560533,
        "meta_mean_motion_ddot": 0.00068543722,
        "tle_line1": "1 66898U 25283W   25348.25003472 -.01560533  68544-3 -47031-2 0  9994",
        "tle_line2": "2 66898  53.1544  66.1989 0000897  82.5701 182.1539 15.91621094  2679"
      },
      "geometry": {
        "type": "Point",
        "coordinates": [
          -124.02776920901,
          9.380959420808692
        ]
      }
    },
    {
      "type": "Feature",
      "properties": {
        "norad_id": 66899,
        "name": "STARLINK-36064",
        "group": "last-30-days",
        "lat": 7.314187217640981,
        "lon": -122.43998641042296,
        "alt_km": 302.6844428408258,
        "timestamp": "2025-12-14T20:40:30.517558+00:00",
        "meta_object_name": "STARLINK-36064",
        "meta_object_id": "2025-283X",
        "meta_epoch": "2025-12-14T06:00:02.999808",
        "meta_mean_motion": 15.91652586,
        "meta_eccentricity": 9.577e-05,
        "meta_inclination": 53.1543,
        "meta_ra_of_asc_node": 66.1937,
        "meta_arg_of_pericenter": 81.2122,
        "meta_mean_anomaly": 186.0451,
        "meta_ephemeris_type": 0,
        "meta_classification_type": "U",
        "meta_norad_cat_id": 66899,
        "meta_element_set_no": 999,
        "meta_rev_at_epoch": 261,
        "meta_bstar": -0.0047089425,
        "meta_mean_motion_dot": -0.01564968,
        "meta_mean_motion_ddot": 0.00068922051,
        "tle_line1": "1 66899U 25283X   25348.25003472 -.01564968  68922-3 -47089-2 0  9994",
        "tle_line2": "2 66899  53.1543  66.1937 0000957  81.2122 186.0451 15.91652586  2612"
      },
      "geometry": {
        "type": "Point",
        "coordinates": [
          -122.43998641042296,
          7.314187217640981
        ]
      }
    }
  ]
}